{"type": "FeatureCollection", "features": [ {"type": "Feature", "properties": {"norad_id": 29782, "name": "FENGYUN 1C DEB", "group": "fengyun-1c-debris", "lat": 10.440514493905088, "lon": -147.95089604456336, "alt_km": 835.8024097130765, "timestamp": "2025-12-02T21:34:01.542407+00:00", "meta": {"OBJECT_NAME": "FENGYUN 1C DEB", "OBJECT_ID": "1999-025BY", "EPOCH": "2025-12-02T09:08:30.052896", "MEAN_MOTION": 14.1157994, "ECCENTRICITY": 0.005494, "INCLINATION": 99.1017, "RA_OF_ASC_NODE": 29.8315, "ARG_OF_PERICENTER": 231.5017, "MEAN_ANOMALY": 188.8885, "EPHEMERIS_TYPE": 0, "CLASSIFICATION_TYPE": "U", "NORAD_CAT_ID": 29782, "ELEMENT_SET_NO": 999, "REV_AT_EPOCH": 96525, "BSTAR": 0.0018125, "MEAN_MOTION_DOT": 3.294e-05, "MEAN_MOTION_DDOT": 0}, "tle": {"line1": "1 29782U 99025BY  25336.38090339  .00003294  00000+0  18125-2 0  9993", "line2": "2 29782  99.1017  29.8315 0054940 231.5017 188.8885 14.11579940965250"}}, "geometry": {"type": "Point", "coordinates": [-147.95089604456336, 10.440514493905088]}}, {"type": "Feature", "properties": {"norad_id": 29784, "name": "FENGYUN 1C DEB", "group": "fengyun-1c-debris", "lat": 13.02036505916218, "lon": -106.67095170633013, "alt_km": 761.5240658051925, "timestamp": "2025-12-02T21:34:01.542418+00:00", "meta": {"OBJECT_NAME": "FENGYUN 1C DEB", "OBJECT_ID": "1999-025CA", "EPOCH": "2025-12-02T08:39:15.808896", "MEAN_MOTION": 14.30531039, "ECCENTRICITY": 0.0060026, "INCLINATION": 98.9446, "RA_OF_ASC_NODE": 254.8631, "ARG_OF_PERICENTER": 327.8933, "MEAN_ANOMALY": 155.6619, "EPHEMERIS_TYPE": 0, "CLASSIFICATION_TYPE": "U", "NORAD_CAT_ID": 29784, "ELEMENT_SET_NO": 999, "REV_AT_EPOCH": 98211, "BSTAR": 0.0007932, "MEAN_MOTION_DOT": 2.062e-05, "MEAN_MOTION_DDOT": 0}, "tle": {"line1": "1 29784U 99025CA  25336.36059964  .00002062  00000+0  79320-3 0  9999", "line2": "2 29784  98.9446 254.8631 0060026 327.8933 155.6619 14.30531039982113"}}, "geometry": {"type": "Point", "coordinates": [-106.67095170633013, 13.02036505916218]}}, {"type": "Feature", "properties": {"norad_id": 29786, "name": "FENGYUN 1C DEB", "group": "fengyun-1c-debris", "lat": -7.390040334326905, "lon": -4.441659982303349, "alt_km": 814.1523351914475, "timestamp": "2025-12-02T21:34:01.542428+00:00", "meta": {"OBJECT_NAME": "FENGYUN 1C DEB", "OBJECT_ID": "1999-025CC", "EPOCH": "2025-12-02T01:15:45.212832", "MEAN_MOTION": 14.09073244, "ECCENTRICITY": 0.00773682, "INCLINATION": 98.7365, "RA_OF_ASC_NODE": 353.5953, "ARG_OF_PERICENTER": 333.5634, "MEAN_ANOMALY": 49.5584, "EPHEMERIS_TYPE": 0, "CLASSIFICATION_TYPE": "U", "NORAD_CAT_ID": 29786, "ELEMENT_SET_NO": 999, "REV_AT_EPOCH": 97010, "BSTAR": 0.00025684614, "MEAN_MOTION_DOT": 4.15e-06, "MEAN_MOTION_DDOT": 0}, "tle": {"line1": "1 29786U 99025CC  25336.05260663  .00000415  00000+0  25685-3 0  9992", "line2": "2 29786  98.7365 353.5953 0077368 333.5634  49.5584 14.09073244970109"}}, "geometry": {"type": "Point", "coordinates": [-4.441659982303349, -7.390040334326905]}}, {"type": "Feature", "properties": {"norad_id": 29788, "name": "FENGYUN 1C DEB", "group": "fengyun-1c-debris", "lat": 49.96198724157543, "lon": 37.893607769449126, "alt_km": 830.808298518421, "timestamp": "2025-12-02T21:34:01.542438+00:00", "meta": {"OBJECT_NAME": "FENGYUN 1C DEB", "OBJECT_ID": "1999-025CE", "EPOCH": "2025-12-02T04:46:33.714048", "MEAN_MOTION": 14.25836723, "ECCENTRICITY": 0.00427222, "INCLINATION": 98.7855, "RA_OF_ASC_NODE": 47.7985, "ARG_OF_PERICENTER": 218.6985, "MEAN_ANOMALY": 203.094, "EPHEMERIS_TYPE": 0, "CLASSIFICATION_TYPE": "U", "NORAD_CAT_ID": 29788, "ELEMENT_SET_NO": 999, "REV_AT_EPOCH": 97205, "BSTAR": 0.0020663208, "MEAN_MOTION_DOT": 4.92e-05, "MEAN_MOTION_DDOT": 0}, "tle": {"line1": "1 29788U 99025CE  25336.19900132  .00004920  00000+0  20663-2 0  9996", "line2": "2 29788  98.7855  47.7985 0042722 218.6985 203.0940 14.25836723972056"}}, "geometry": {"type": "Point", "coordinates": [37.893607769449126, 49.96198724157543]}}, {"type": "Feature", "properties": {"norad_id": 29789, "name": "FENGYUN 1C DEB", "group": "fengyun-1c-debris", "lat": -29.02946141841053, "lon": -25.195808453837945, "alt_km": 1072.469411686956, "timestamp": "2025-12-02T21:34:01.542447+00:00", "meta": {"OBJECT_NAME": "FENGYUN 1C DEB", "OBJECT_ID": "1999-025CF", "EPOCH": "2025-12-02T11:46:32.986848", "MEAN_MOTION": 13.54202526, "ECCENTRICITY": 0.0298398, "INCLINATION": 99.4521, "RA_OF_ASC_NODE": 159.7183, "ARG_OF_PERICENTER": 304.6585, "MEAN_ANOMALY": 80.247, "EPHEMERIS_TYPE": 0, "CLASSIFICATION_TYPE": "U", "NORAD_CAT_ID": 29789, "ELEMENT_SET_NO": 999, "REV_AT_EPOCH": 92849, "BSTAR": 0.0016412, "MEAN_MOTION_DOT": 1.437e-05, "MEAN_MOTION_DDOT": 0}, "tle": {"line1": "1 29789U 99025CF  25336.49065957  .00001437  00000+0  16412-2 0  9994", "line2": "2 29789  99.4521 159.7183 0298398 304.6585  80.2470 13.54202526928494"}}, "geometry": {"type": "Point", "coordinates": [-25.195808453837945, -29.02946141841053]}}, {"type": "Feature", "properties": {"norad_id": 29790, "name": "FENGYUN 1C DEB", "group": "fengyun-1c-debris", "lat": 76.38547602085318, "lon": -167.90842366609198, "alt_km": 790.7683226575109, "timestamp": "2025-12-02T21:34:01.542458+00:00", "meta": {"OBJECT_NAME": "FENGYUN 1C DEB", "OBJECT_ID": "1999-025CG", "EPOCH": "2025-12-02T11:02:09.147840", "MEAN_MOTION": 14.32242276, "ECCENTRICITY": 0.0076065, "INCLINATION": 99.147, "RA_OF_ASC_NODE": 329.9276, "ARG_OF_PERICENTER": 206.4449, "MEAN_ANOMALY": 153.2843, "EPHEMERIS_TYPE": 0, "CLASSIFICATION_TYPE": "U", "NORAD_CAT_ID": 29790, "ELEMENT_SET_NO": 999, "REV_AT_EPOCH": 98378, "BSTAR": 0.00040112, "MEAN_MOTION_DOT": 1.068e-05, "MEAN_MOTION_DDOT": 0}, "tle": {"line1": "1 29790U 99025CG  25336.45982810  .00001068  00000+0  40112-3 0  9993", "line2": "2 29790  99.1470 329.9276 0076065 206.4449 153.2843 14.32242276983784"}}, "geometry": {"type": "Point", "coordinates": [-167.90842366609198, 76.38547602085318]}}, {"type": "Feature", "properties": {"norad_id": 29791, "name": "FENGYUN 1C DEB", "group": "fengyun-1c-debris", "lat": -15.591115339473362, "lon": 154.05396515541725, "alt_km": 711.6989207585457, "timestamp": "2025-12-02T21:34:01.542467+00:00", "meta": {"OBJECT_NAME": "FENGYUN 1C DEB", "OBJECT_ID": "1999-025CH", "EPOCH": "2025-12-02T11:29:15.593280", "MEAN_MOTION": 14.58008817, "ECCENTRICITY": 0.0041698, "INCLINATION": 99.0364, "RA_OF_ASC_NODE": 336.1432, "ARG_OF_PERICENTER": 92.2601, "MEAN_ANOMALY": 59.8354, "EPHEMERIS_TYPE": 0, "CLASSIFICATION_TYPE": "U", "NORAD_CAT_ID": 29791, "ELEMENT_SET_NO": 999, "REV_AT_EPOCH": 98696, "BSTAR": 0.0018221, "MEAN_MOTION_DOT": 8.427e-05, "MEAN_MOTION_DDOT": 0}, "tle": {"line1": "1 29791U 99025CH  25336.47865270  .00008427  00000+0  18221-2 0  9997", "line2": "2 29791  99.0364 336.1432 0041698  92.2601  59.8354 14.58008817986965"}}, "geometry": {"type": "Point", "coordinates": [154.05396515541725, -15.591115339473362]}}, {"type": "Feature", "properties": {"norad_id": 29792, "name": "FENGYUN 1C DEB", "group": "fengyun-1c-debris", "lat": -61.43801643341685, "lon": 44.096091485219446, "alt_km": 870.5094717078928, "timestamp": "2025-12-02T21:34:01.542477+00:00", "meta": {"OBJECT_NAME": "FENGYUN 1C DEB", "OBJECT_ID": "1999-025CJ", "EPOCH": "2025-12-02T03:11:47.711040", "MEAN_MOTION": 14.15073012, "ECCENTRICITY": 0.00487089, "INCLINATION": 98.759, "RA_OF_ASC_NODE": 26.8922, "ARG_OF_PERICENTER": 67.0874, "MEAN_ANOMALY": 293.5431, "EPHEMERIS_TYPE": 0, "CLASSIFICATION_TYPE": "U", "NORAD_CAT_ID": 29792, "ELEMENT_SET_NO": 999, "REV_AT_EPOCH": 96789, "BSTAR": 0.0015291649, "MEAN_MOTION_DOT": 2.956e-05, "MEAN_MOTION_DDOT": 0}, "tle": {"line1": "1 29792U 99025CJ  25336.13319110  .00002956  00000+0  15292-2 0  9994", "line2": "2 29792  98.7590  26.8922 0048708  67.0874 293.5431 14.15073012967897"}}, "geometry": {"type": "Point", "coordinates": [44.096091485219446, -61.43801643341685]}}, {"type": "Feature", "properties": {"norad_id": 29793, "name": "FENGYUN 1C DEB", "group": "fengyun-1c-debris", "lat": 55.34798998121695, "lon": 144.2250301114873, "alt_km": 816.8424154389295, "timestamp": "2025-12-02T21:34:01.542487+00:00", "meta": {"OBJECT_NAME": "FENGYUN 1C DEB", "OBJECT_ID": "1999-025CK", "EPOCH": "2025-12-02T11:16:28.405344", "MEAN_MOTION": 14.010291, "ECCENTRICITY": 0.0144256, "INCLINATION": 98.3558, "RA_OF_ASC_NODE": 156.1091, "ARG_OF_PERICENTER": 7.3697, "MEAN_ANOMALY": 45.8655, "EPHEMERIS_TYPE": 0, "CLASSIFICATION_TYPE": "U", "NORAD_CAT_ID": 29793, "ELEMENT_SET_NO": 999, "REV_AT_EPOCH": 96005, "BSTAR": 0.0010987, "MEAN_MOTION_DOT": 1.763e-05, "MEAN_MOTION_DDOT": 0}, "tle": {"line1": "1 29793U 99025CK  25336.46977321  .00001763  00000+0  10987-2 0  9996", "line2": "2 29793  98.3558 156.1091 0144256   7.3697  45.8655 14.01029100960058"}}, "geometry": {"type": "Point", "coordinates": [144.2250301114873, 55.34798998121695]}}, {"type": "Feature", "properties": {"norad_id": 29794, "name": "FENGYUN 1C DEB", "group": "fengyun-1c-debris", "lat": 80.05287477070053, "lon": 81.11070707369043, "alt_km": 745.5574207192421, "timestamp": "2025-12-02T21:34:01.542497+00:00", "meta": {"OBJECT_NAME": "FENGYUN 1C DEB", "OBJECT_ID": "1999-025CL", "EPOCH": "2025-12-02T09:30:47.308896", "MEAN_MOTION": 14.08963313, "ECCENTRICITY": 0.0157514, "INCLINATION": 98.1995, "RA_OF_ASC_NODE": 135.9535, "ARG_OF_PERICENTER": 70.1211, "MEAN_ANOMALY": 347.6674, "EPHEMERIS_TYPE": 0, "CLASSIFICATION_TYPE": "U", "NORAD_CAT_ID": 29794, "ELEMENT_SET_NO": 999, "REV_AT_EPOCH": 96702, "BSTAR": 0.00073797, "MEAN_MOTION_DOT": 1.395e-05, "MEAN_MOTION_DDOT": 0}, "tle": {"line1": "1 29794U 99025CL  25336.39638089  .00001395  00000+0  73797-3 0  9994", "line2": "2 29794  98.1995 135.9535 0157514  70.1211 347.6674 14.08963313967029"}}, "geometry": {"type": "Point", "coordinates": [81.11070707369043, 80.05287477070053]}}]}